IRIDIUM 57 [-]          
1 25273U 98019B   23337.66175214  .00000699  00000+0  23865-3 0  9996
2 25273  86.3980  20.4081 0002146  93.0077 267.1365 14.35006459344445
IRIDIUM 63 [-]          
1 25286U 98021B   23337.47881454  .00000948  00000+0  32280-3 0  9990
2 25286  86.3961 317.4254 0002040  86.7715 273.3715 14.35514401343505
IRIDIUM 69 [-]          
1 25319U 98026A   23337.49530473  .00000907  00000+0  28366-3 0  9991
2 25319  86.3972 332.3805 0004424  82.4702 277.7000 14.39695344342211
IRIDIUM 71 [-]          
1 25320U 98026B   23337.46983635  .00000920  00000+0  28601-3 0  9999
2 25320  86.3962 327.2050 0003968 114.3606 245.8008 14.40019328342721
IRIDIUM 73 [-]          
1 25344U 98032C   23337.39586042  .00001458  00000+0  37025-3 0  9992
2 25344  86.4401 284.9600 0003021  87.4963 272.6588 14.50172020349102
IRIDIUM 82 [-]          
1 25467U 98051A   23337.55234301  .00013200  00000+0  75432-3 0  9997
2 25467  86.3961  18.3878 0141732 218.7304 140.3706 15.04342313338873
IRIDIUM 2 [-]           
1 25527U 98066A   23337.30722836  .00048418  00000+0  95268-3 0  9996
2 25527  85.5176  68.1238 0004076  17.4052 342.7343 15.47056690377195
